SL-16 R/B               
1 23405U 94077B   26189.46115230 -.00000275  00000+0 -11616-3 0  9992
2 23405  70.9831  98.4071 0004042 308.7454  51.3307 14.15576381633321
ARIANE 40+ R/B          
1 23561U 95021B   26189.10227088  .00000169  00000+0  67791-4 0  9997
2 23561  98.4403 258.8743 0007675 134.7075 243.5489 14.39844927636579
SL-16 R/B               
1 23705U 95058B   26189.54461588 -.00000198  00000+0 -76690-4 0  9992
2 23705  71.0218 286.5181 0014626 291.5063  68.4500 14.15508446584956
SL-16 R/B               
1 24298U 96051B   26189.48964823  .00000136  00000+0  10002-3 0  9991
2 24298  70.7652 279.5670 0017263 306.8836  53.0701 14.12453887538705
ORBVIEW 2 (SEASTAR)     
1 24883U 97037A   26189.41755275  .00000170  00000+0  75207-4 0  9995
2 24883  98.8708 357.0270 0003249  74.3348 285.8195 14.35564541525792
SL-16 R/B               
1 25400U 98043G   26189.34146664  .00000019  00000+0  26940-4 0  9999
2 25400  98.8375 143.6838 0010396  30.4698 329.7083 14.26072010456184
SL-16 R/B               
1 25407U 98045B   26189.28436261 -.00000153  00000+0 -53101-4 0  9996
2 25407  71.0123 287.9617 0008517 216.0654 143.9895 14.16207601444176
ISS (ZARYA)             
1 25544U 98067A   26189.47612158  .00005295  00000+0  10439-3 0  9990
2 25544  51.6304 194.7265 0006674 271.3265  88.6959 15.48944488575056
CZ-4B R/B               
1 25732U 99025C   26189.36291549  .00000024  00000+0  32428-4 0  9997
2 25732  98.6473 230.6674 0037031 359.5788  10.8544 14.18286921405277
OKEAN-O                 
1 25860U 99039A   26189.43463486  .00000402  00000+0  59379-4 0  9997
2 25860  97.9305 247.9875 0001026  76.3761 283.7565 14.80492229452252
SL-16 R/B               
1 25861U 99039B   26189.43668783  .00000325  00000+0  47832-4 0  9990
2 25861  97.9826 248.2381 0013839 221.3809 138.6357 14.81866224454741
DELTA 2 R/B             
1 25876U 99041E   26189.40983884  .00001142  00000+0  22202-3 0  9999
2 25876  51.7611 179.0093 0501234 344.7240  13.9017 14.12064834380082
HELIOS 1B               
1 25977U 99064A   26189.49489106  .00001101  00000+0  12612-3 0  9992
2 25977  98.1595  95.2499 0002224  62.2491 297.8950 14.88063949703227
TERRA                   
1 25994U 99068A   26189.53519162  .00000286  00000+0  67178-4 0  9997
2 25994  97.9444 238.2338 0003108 135.9682   0.4383 14.61120262412722
SL-16 R/B               
1 26070U 00006B   26189.04840982 -.00000228  00000+0 -91262-4 0  9999
2 26070  71.0004 204.7608 0016889 350.1137   9.9651 14.15840160365596
TITAN 4B R/B            
1 26474U 00047B   26189.51803678  .00002021  00000+0  12848-3 0  9998
2 26474  67.9873  60.5270 0045974 265.3852  94.2045 15.10312053411152
ENVISAT                 
1 27386U 02009A   26189.61733442  .00000057  00000+0  32259-4 0  9999
2 27386  98.3844 140.4590 0001353  83.9267  94.0066 14.39069803276568
IDEFIX & ARIANE 42P R/B 
1 27422U 02021B   26189.24449536  .00000140  00000+0  69900-4 0  9997
2 27422  98.5942 126.4997 0011449 186.9082 173.1945 14.31091702261262
AQUA                    
1 27424U 02022A   26189.54792620  .00000582  00000+0  12538-3 0  9992
2 27424  98.4290 159.2593 0000747 100.0336 353.7043 14.62190697286396
CZ-4B R/B               
1 27432U 02024C   26189.61233737  .00000004  00000+0  24895-4 0  9999
2 27432  98.8689 242.2922 0050795  40.5142  75.4759 14.14567661246339
MIDORI II (ADEOS-II)    
1 27597U 02056A   26189.27846274  .00000171  00000+0  85003-4 0  9997
2 27597  98.7890 148.7188 0001759  49.3052 310.8282 14.29360709227528
H-2A R/B                
1 27601U 02056E   26189.38327003  .00000162  00000+0  71164-4 0  9992
2 27601  98.3323 145.2864 0070466 161.0615 351.0187 14.33831441231406
CZ-4B R/B               
1 28059U 03049C   26189.41043336  .00000179  00000+0  52700-4 0  9994
2 28059  98.6905 189.1026 0047263 222.2531 137.5019 14.55113102204150
CZ-2C R/B               
1 28222U 04012C   26189.48736191  .00112478  00000+0  50424-3 0  9998
2 28222  97.7052 267.7024 0011195 211.4922 148.5677 15.83759336223267
SL-16 R/B               
1 28353U 04021B   26189.44560157  .00000241  00000+0  15037-3 0  9991
2 28353  71.0021 339.0728 0006491 230.6321 129.4227 14.14614467139911
CZ-4B R/B               
1 28415U 04035C   26189.05061462  .00004403  00000+0  14816-3 0  9995
2 28415  97.3363 221.8915 0028865 259.4014 100.3975 15.30924236198317
CZ-2C R/B               
1 28480U 04046B   26189.50710711  .00000068  00000+0  40053-4 0  9993
2 28480  98.1927  96.9537 0139749 157.0883 203.6616 14.27031776125734
ARIANE 5 R/B            
1 28499U 04049H   26189.48315355  .00000405  00000+0  51436-4 0  9990
2 28499  98.2736   2.5610 0082972 320.3077  39.2083 14.85474036163729
CZ-2D R/B               
1 28738U 05024B   26189.49711412  .00053216  00000+0  40553-3 0  9990
2 28738  97.3477 210.0257 0001224 219.9148 140.2025 15.72095625158681
ALOS (DAICHI)           
1 28931U 06002A   26189.32672407  .00000786  00000+0  13909-3 0  9993
2 28931  98.1333 144.8297 0000772  78.6202 281.5091 14.70093091 91200
