OBJECT_NAME,OBJECT_ID,EPOCH,MEAN_MOTION,ECCENTRICITY,INCLINATION,RA_OF_ASC_NODE,ARG_OF_PERICENTER,MEAN_ANOMALY,EPHEMERIS_TYPE,CLASSIFICATION_TYPE,NORAD_CAT_ID,ELEMENT_SET_NO,REV_AT_EPOCH,BSTAR,MEAN_MOTION_DOT,MEAN_MOTION_DDOT
SL-16 R/B,1994-077B,2026-07-08T11:04:03.558720,14.15576381,.00040424,70.9831,98.4071,308.7454,51.3307,0,U,23405,999,63332,-.11616114E-3,-.275E-5,0
ARIANE 40+ R/B,1995-021B,2026-07-08T02:27:16.204032,14.39844927,.0007675,98.4403,258.8743,134.7075,243.5489,0,U,23561,999,63657,.67791226E-4,.169E-5,0
SL-16 R/B,1995-058B,2026-07-08T13:04:14.812032,14.15508446,.00146261,71.0218,286.5181,291.5063,68.4500,0,U,23705,999,58495,-.7668958E-4,-.198E-5,0
SL-16 R/B,1996-051B,2026-07-08T11:45:05.607072,14.12453887,.00172637,70.7652,279.5670,306.8836,53.0701,0,U,24298,999,53870,.10002187E-3,.136E-5,0
ORBVIEW 2 (SEASTAR),1997-037A,2026-07-08T10:01:16.557600,14.35564541,.00032492,98.8708,357.0270,74.3348,285.8195,0,U,24883,999,52579,.75207159E-4,.17E-5,0
SL-16 R/B,1998-043G,2026-07-08T08:11:42.717696,14.26072010,.00103965,98.8375,143.6838,30.4698,329.7083,0,U,25400,999,45618,.26939511E-4,.19E-6,0
SL-16 R/B,1998-045B,2026-07-08T06:49:28.929504,14.16207601,.00085174,71.0123,287.9617,216.0654,143.9895,0,U,25407,999,44417,-.53100754E-4,-.153E-5,0
ISS (ZARYA),1998-067A,2026-07-08T11:25:36.904512,15.48944488,.00066744,51.6304,194.7265,271.3265,88.6959,0,U,25544,999,57505,.10439061E-3,.5295E-4,0
CZ-4B R/B,1999-025C,2026-07-08T08:42:35.898336,14.18286921,.00370315,98.6473,230.6674,359.5788,10.8544,0,U,25732,999,40527,.32427805E-4,.24E-6,0
OKEAN-O,1999-039A,2026-07-08T10:25:52.451904,14.80492229,.00010264,97.9305,247.9875,76.3761,283.7565,0,U,25860,999,45225,.59379065E-4,.402E-5,0
SL-16 R/B,1999-039B,2026-07-08T10:28:49.828512,14.81866224,.00138391,97.9826,248.2381,221.3809,138.6357,0,U,25861,999,45474,.47831643E-4,.325E-5,0
DELTA 2 R/B,1999-041E,2026-07-08T09:50:10.075776,14.12064834,.05012347,51.7611,179.0093,344.7240,13.9017,0,U,25876,999,38008,.22201692E-3,.1142E-4,0
HELIOS 1B,1999-064A,2026-07-08T11:52:38.587584,14.88063949,.00022243,98.1595,95.2499,62.2491,297.8950,0,U,25977,999,70322,.12611686E-3,.1101E-4,0
TERRA,1999-068A,2026-07-08T12:50:40.555968,14.61120262,.00031087,97.9444,238.2338,135.9682,0.4383,0,U,25994,999,41272,.67178037E-4,.286E-5,0
SL-16 R/B,2000-006B,2026-07-08T01:09:42.608448,14.15840160,.00168897,71.0004,204.7608,350.1137,9.9651,0,U,26070,999,36559,-.91262399E-4,-.228E-5,0
TITAN 4B R/B,2000-047B,2026-07-08T12:25:58.377792,15.10312053,.00459745,67.9873,60.5270,265.3852,94.2045,0,U,26474,999,41115,.12848464E-3,.2021E-4,0
ENVISAT,2002-009A,2026-07-08T14:48:57.693888,14.39069803,.00013533,98.3844,140.4590,83.9267,94.0066,0,U,27386,999,27656,.32259356E-4,.57E-6,0
IDEFIX & ARIANE 42P R/B,2002-021B,2026-07-08T05:52:04.399104,14.31091702,.00114493,98.5942,126.4997,186.9082,173.1945,0,U,27422,999,26126,.6990013E-4,.14E-5,0
AQUA,2002-022A,2026-07-08T13:09:00.823680,14.62190697,.00007479,98.4290,159.2593,100.0336,353.7043,0,U,27424,999,28639,.12538268E-3,.582E-5,0
CZ-4B R/B,2002-024C,2026-07-08T14:41:45.948768,14.14567661,.0050795,98.8689,242.2922,40.5142,75.4759,0,U,27432,999,24633,.24894874E-4,.4E-7,0
MIDORI II (ADEOS-II),2002-056A,2026-07-08T06:40:59.180736,14.29360709,.00017594,98.7890,148.7188,49.3052,310.8282,0,U,27597,999,22752,.85003249E-4,.171E-5,0
H-2A R/B,2002-056E,2026-07-08T09:11:54.530592,14.33831441,.00704668,98.3323,145.2864,161.0615,351.0187,0,U,27601,999,23140,.71164387E-4,.162E-5,0
CZ-4B R/B,2003-049C,2026-07-08T09:51:01.442304,14.55113102,.00472634,98.6905,189.1026,222.2531,137.5019,0,U,28059,999,20415,.52699967E-4,.179E-5,0
CZ-2C R/B,2004-012C,2026-07-08T11:41:48.069024,15.83759336,.00111959,97.7052,267.7024,211.4922,148.5677,0,U,28222,999,22326,.504244E-3,.112478E-2,0
SL-16 R/B,2004-021B,2026-07-08T10:41:39.975648,14.14614467,.00064916,71.0021,339.0728,230.6321,129.4227,0,U,28353,999,13991,.15036581E-3,.241E-5,0
CZ-4B R/B,2004-035C,2026-07-08T01:12:53.103168,15.30924236,.00288656,97.3363,221.8915,259.4014,100.3975,0,U,28415,999,19831,.14816289E-3,.4403E-4,0
CZ-2C R/B,2004-046B,2026-07-08T12:10:14.054304,14.27031776,.01397497,98.1927,96.9537,157.0883,203.6616,0,U,28480,999,12573,.40053304E-4,.68E-6,0
ARIANE 5 R/B,2004-049H,2026-07-08T11:35:44.466720,14.85474036,.00829726,98.2736,2.5610,320.3077,39.2083,0,U,28499,999,16372,.5143568E-4,.405E-5,0
CZ-2D R/B,2005-024B,2026-07-08T11:55:50.659968,15.72095625,.00012246,97.3477,210.0257,219.9148,140.2025,0,U,28738,999,15868,.40553385E-3,.53216E-3,0
ALOS (DAICHI),2006-002A,2026-07-08T07:50:28.959648,14.70093091,.00007721,98.1333,144.8297,78.6202,281.5091,0,U,28931,999,9120,.13908768E-3,.786E-5,0
